#dP2021  4  7 12  0  0.00000000      96 __u+U ITR00 EXT  IAC
## 2152 302400.00000000   900.00000000 59311 0.5000000000000
+  117   C06C07C08C09C10C11C12C13C14C16C19C20C21C22C23C24C25
+        C26C27C28C29C30C32C33C34C35C36C37C38C39C40C41C42C43
+        C44C45C46E01E02E03E04E05E07E08E09E11E12E13E14E15E18
+        E19E21E24E25E26E27E30E31E33E36G01G02G03G04G05G06G07
+        G08G09G10G11G12G13G14G15G16G17G18G19G20G21G22G23G24
+        G25G26G27G28G29G30G31G32J01J02J03R01R02R03R04R05R07
+        R08R09R11R12R13R14R15R16R17R18R19R20R21R22R24  0  0
++        11 10  9  9  9 12  9 10  8  9 10  9  9  8  9  9 10
++         8  8  8 10  8  9  8 10  8 10  9 12 11 11  9 10 10
++         9  9  9  8  8  8  7  8  8  8  8  7  7  8  7  8  8
++         8  8  7  8  7  7  9  7  7  6  6  7  6  7  6  8  8
++         8  8  7  8  7  7  8  7  9  8  8  9  8  7  7  7  8
++         8  8  7  8  7  8  9  8 11  9 10  9  8  9  8  8  9
++         8 10  9  8 10  7  8  8  8  9  7 10  8  8  8  0  0
%c M  cc GPS ccc cccc cccc cccc cccc ccccc ccccc ccccc ccccc
%c cc cc ccc ccc cccc cccc cccc cccc ccccc ccccc ccccc ccccc
%f  0.0000000  0.000000000  0.00000000000  0.000000000000000
%f  0.0000000  0.000000000  0.00000000000  0.000000000000000
%i    0    0    0    0      0      0      0      0         0
%i    0    0    0    0      0      0      0      0         0
/* IAC                                ULTRA-RAPID PREDICTION
/* S/V CLOCKS ARE ALIGNED TO GNSS TIME                      
/* G:C1WC2W R:C1PC2P E:C1XC5X C:C2IC6I J:C1CC2S             
/* PCV:IGS14_2148 OL/AL:FES2004  NONE     YN ORB:CoN CLK:CoN
*  2021 04 07 21 30  0.00000000
PC06 -13460.457379  21240.286078  34267.354612    255.165457
PC07 -24425.837081  33490.746107  -8823.784112    -97.270552
PC08  -7763.269152  33965.212264 -23366.305830   -893.687564
PC09   3018.789931  26869.205002  32745.077728    612.086747
PC10 -11768.381669  34902.150714 -20702.874731    -59.868071
PC11  24618.786018   4432.193899  12394.165457   -822.651174
PC12  22355.109854  15903.382476  -5038.473518    926.099499
PC13   1174.788155  40572.001973 -10823.158578    212.370579
PC14  24654.468958  -6205.169998  11471.395498    409.914999
PC16  -9202.908216  22360.136489  34653.301850   -772.201067
PC19 -24310.145916  13505.199418  -2408.239371    790.411847
PC20 -21748.461813   -500.638004 -17474.084377   -948.555452
PC21   5954.270970  14953.401802  22821.865451   -928.871031
PC22 -12912.034819  20073.967333  14493.063682   -952.632231
PC23   5237.924952 -26072.570920  -8462.577090   -885.026907
PC24  15269.763576  10482.064485 -20877.672419   -806.569455
PC25  14132.028359 -12200.099192 -20754.111364   -936.078362
PC26   8148.816380  24950.074202  -9436.816438    924.225948
PC27 -15449.745257 -18985.399277  13362.432382    511.669475
PC28   3608.635569 -15863.833249  22674.345126    -88.994363
PC29 -20342.552112   4242.485750 -18630.423352    375.725597
PC30 -25699.805116 -10343.809060  -3242.299488    458.511169
PC32  -6088.230919 -14887.056858 -22782.880992   -933.523756
PC33  24259.890971 -13538.335841   2537.967182   -942.297616
PC34  25789.965731   9961.015331   3899.630845   -701.070760
PC35  -3397.836895  15917.941556 -22677.319246   -337.728950
PC36 -14526.496990  11467.580696  20905.128254   -733.506787
PC37  -7051.358422 -25588.244808   8661.190877   -891.319574
PC38  -6266.973354  36740.828063 -19590.988973    140.818816
PC39  -5539.838254  23505.333245  34591.064668     30.098317
PC40 -18070.495489  31337.379955 -21739.105508    148.869283
PC41  13121.293665 -20092.674331 -14193.789799   -940.626671
PC42  21354.748024   1203.970797  17964.334395   -927.854260
PC43  20759.318149  -3811.193180  18262.508380   -675.245196
PC44  15895.067631  18583.392788 -13488.619066    126.108368
PC45  -5081.876045  26105.607718   8415.643600    407.762597
PC46 -15368.706264  -9497.142270  21278.990919    326.671635
PE01   1137.577217 -25701.393287  14642.949813  -1082.188219
PE02  -1024.814053  25635.428138 -14752.409914    210.573169
PE03   5316.967785  16550.112720  23960.632516   -417.614315
PE04 -24142.545279  -8425.943775 -14900.894499   -745.402071
PE05 -16895.646743  15069.681555  19076.332128   -290.661886
PE07  29035.730546  -4807.871902  -3105.569200   -522.748751
PE08  24372.740767   8041.290717  14743.010420   6021.106672
PE09 -28986.922400   5059.068345   3297.311225   5708.477892
PE11 -18898.287966   -817.795196 -22765.939244   6119.756397
PE12 -20746.752803 -19226.468089  -8676.913962   5271.019535
PE13  19042.484969   1268.518237  22635.632912    414.698119
PE14 -27166.455437   7159.246891 -14239.688552  -1389.097681
PE15  20815.026933  19163.067354   8727.906437    820.624474
PE18  24565.330701    891.927363   4546.647311  -1519.530450
PE19  -2692.322216 -16770.510416 -24232.809258    246.584334
PE21  14160.362207 -25834.368208  -2913.560298   -658.047697
PE24 -19542.491223  10095.411836  19778.618168   -834.994397
PE25 -14255.234022  25752.087567   3092.987825   -530.426552
PE26   5644.301946 -17989.312678  22822.792795   1950.840448
PE27  19500.516763 -10980.474913 -19381.066827     -6.360748
PE30  12847.993500  11197.052095 -24212.494784   3043.330845
PE31 -13342.620632 -10246.027474  24357.460945   -479.935712
PE33 -10317.779784 -25750.276736  10312.738986   -467.313170
PE36  -6041.486450  17370.985517 -23191.455751   -190.625153
PG01  16419.046483   4039.363175  20325.195316    722.080021
PG02 -13762.175475 -22480.152748  -2394.605347   -593.582225
PG03  19405.821133  -7226.718966  16488.682319   -130.424421
PG04  26273.047292   1027.155639  -3966.071967   -190.621392
PG05 -12084.919988  -9592.052491 -21766.542281    -38.436717
PG06  -4888.263967 -24786.109326   8163.302498      5.626253
PG07  11310.911912 -11242.361651 -20817.627259    115.050954
PG08  25682.320930   5687.301668  -4720.240103    -16.666074
PG09  21668.158383  -7548.544033 -13461.617764   -337.232128
PG10 -10192.952455  23105.579527   7889.769195    -97.328641
PG11  22059.817326   4377.593644  13403.974912     23.249340
PG12 -18838.337189   3077.606839  18151.368382    -24.744328
PG13 -19940.437539 -13256.381649 -11764.733026    117.190664
PG14  12030.955703 -22631.733891   6917.673082     97.512100
PG15 -26161.059121  -3454.809820  -4743.617456   -157.734174
PG16   8337.811096  12955.009326 -21827.639641   -306.162864
PG17   6000.842843 -13983.216840  22196.038088    422.708241
PG18  -8670.343853  15143.271390 -20012.990157    351.582068
PG19  -3658.110348 -15287.142758  21142.555290    -15.937158
PG20 -18205.956201  14402.040154 -12621.556172    523.409456
PG21  18772.753387  10761.560432  16427.355784    109.277751
PG22  16592.938180   2186.784480  20786.249569   -643.092853
PG23 -16806.853687  20297.700013  -3135.062974    114.652954
PG24 -18566.067580  -8756.277242  16816.283809      0.064443
PG25 -19189.131137  15726.865362   8824.098769    114.209400
PG26   1312.179131  20256.441039 -17047.254768     69.051211
PG27  18447.748211  12299.525406 -15065.662153   -108.599586
PG28  10822.615222 -22424.481490  10066.915368    590.230933
PG29 -21676.224993   5664.458512 -14344.620219   -325.989078
PG30   2269.173026 -22164.155415 -14232.124980   -409.672968
PG31   6318.900307  25012.309695   5100.175527   -110.258218
PG32  -3155.515664  15060.183979  21748.262273     22.046205
PJ01 -31024.120967  27162.389539  13788.470361   -363.079469
PJ02 -30437.316420  26462.686795  17061.473245      4.980598
PJ03 -27084.366483  16038.312245 -23466.118344     -2.982432
PR01 -10365.945057  -7231.311324 -22152.834331     77.551050
PR02 -23584.120045   5039.399368  -8174.890764    473.922587
PR03 -20067.270092  12701.624327   9287.432408     33.809390
PR04  -5417.976888  12903.040852  21356.760150     81.388270
PR05  12307.231019   6025.897308  21534.836614     69.570974
PR07  19802.606929 -12801.540335  -9741.639484    -42.552859
PR08   5372.432838 -12978.391309 -21237.547167    -58.408988
PR09  11527.019211  -2056.906577 -22642.794028    -13.187191
PR11   2031.325972 -25285.604703   2639.359972      1.340328
PR12  -6480.030929 -16519.560792  18355.466608    219.005147
PR13 -11205.692217   1515.440441  22843.618419    -53.102512
PR14  -9445.571220  19295.610679  13768.475986     62.893688
PR15  -2197.550834  25228.136322  -3038.343203    104.505524
PR16   7417.896047  15402.395482 -18904.659991    -13.510554
PR17  -9535.934765   5720.530061 -22951.375537    414.401155
PR18   5760.884120  15744.948149 -19234.610759     72.440588
PR19  17036.182576  17993.071064  -6066.982013   -138.877908
PR20  19731.920804   8924.383468  13526.715614    -46.861441
PR21   8477.132102  -6546.328748  23148.742421   -200.109678
PR22  -6541.915633 -16071.259716  18637.449152   -106.653699
PR24 -19819.313652  -7900.979345 -13968.207776     37.975560
EOF
